{
  "type": "FeatureCollection",
  "name": "civic_constellation_green_network",
  "features": [
    {
      "type": "Feature",
      "id": "GREEN-001",
      "properties": {
        "id": "GREEN-001",
        "layer": "GREEN_SPACE",
        "source_type": "agent_generated_design",
        "confidence": "medium",
        "geometry_role": "design_proposal",
        "land_use_code": "1401",
        "name_zh": "三山五园未来实验景观",
        "name_en": "Three Mountains and Five Gardens future landscape laboratories",
        "area_sqm_declared": 1155750.357,
        "functions": [
          "shade",
          "stormwater",
          "habitat",
          "quiet_retreat",
          "walking"
        ],
        "five_garden_labs": [
          "climate_garden",
          "robotic_ecology_garden",
          "life_science_garden",
          "open_compute_garden",
          "imagination_garden"
        ],
        "design_language": "three_mountains_five_gardens_and_qinghe_water_network_reference_not_existing_alignment_claim"
      },
      "geometry": {
        "type": "MultiPolygon",
        "coordinates": [
          [
            [
              [
                116.34936138779835,
                39.94685228235054
              ],
              [
                116.34935926340611,
                39.94683783541963
              ],
              [
                116.34935673005242,
                39.946823427596044
              ],
              [
                116.34935378894328,
                39.94680906573713
              ],
              [
                116.34935044147876,
                39.946794756678315
              ],
              [
                116.34934668925233,
                39.94678050722988
              ],
              [
                116.34934253405005,
                39.94676632417378
              ],
              [
                116.34933797784984,
                39.946752214260336
              ],
              [
                116.34933302282043,
                39.94673818420504
              ],
              [
                116.34932767132034,
                39.9467242406854
              ],
              [
                116.34932192589687,
                39.94671039033774
              ],
              [
                116.34931578928472,
                39.946696639754
              ],
              [
                116.34930926440478,
                39.94668299547867
              ],
              [
                116.34930235436275,
                39.94666946400561
              ],
              [
                116.34929506244765,
                39.946656051774994
              ],
              [
                116.3492873921302,
                39.94664276517026
              ],
              [
                116.34927934706123,
                39.946629610515046
              ],
              [
                116.34927093106994,
                39.94661659407017
              ],
              [
                116.34926214816204,
                39.94660372203069
              ],
              [
                116.34925300251787,
                39.9465910005229
              ],
              [
                116.3492434984904,
                39.94657843560149
              ],
              [
                116.34923364060316,
                39.94656603324657
              ],
              [
                116.34922343354809,
                39.9465537993609
              ],
              [
                116.34921288218334,
                39.94654173976708
              ],
              [
                116.34920199153086,
                39.946529860204734
              ],
              [
                116.3491907667741,
                39.94651816632777
              ],
              [
                116.34917921325551,
                39.946506663701776
              ],
              [
                116.34916733647401,
                39.94649535780124
              ],
              [
                116.34915514208238,
                39.94648425400711
              ],
              [
                116.34914263588453,
                39.94647335760406
              ],
              [
                116.34912982383275,
                39.94646267377813
              ],
              [
                116.34911671202495,
                39.946452207614094
              ],
              [
                116.34910330670161,
                39.94644196409319
              ],
              [
                116.34908961424294,
                39.94643194809071
              ],
              [
                116.34907564116583,
                39.946422164373615
              ],
              [
                116.34906139412064,
                39.946412617598305
              ],
              [
                116.34904687988819,
                39.94640331230845
              ],
              [
                116.34903210537644,
                39.94639425293275
              ],
              [
                116.34901707761716,
                39.94638544378291
              ],
              [
                116.34900180376272,
                39.94637688905147
              ],
              [
                116.34898629108254,
                39.94636859280996
              ],
              [
                116.34897054695975,
                39.94636055900682
              ],
              [
                116.34895457888757,
                39.946352791465635
              ],
              [
                116.34893839446586,
                39.94634529388323
              ],
              [
                116.34892200139738,
                39.946338069827966
              ],
              [
                116.34890540748425,
                39.946331122738016
              ],
              [
                116.3488886206241,
                39.94632445591971
              ],
              [
                116.34887164880644,
                39.94631807254605
              ],
              [
                116.34885450010876,
                39.946311975655064
              ],
              [
                116.34883718269273,
                39.94630616814848
              ],
              [
                116.34881970480039,
                39.94630065279029
              ],
              [
                116.34880207475001,
                39.9462954322054
              ],
              [
                116.3487843009324,
                39.94629050887851
              ],
              [
                116.34876639180668,
                39.946285885152754
              ],
              [
                116.34874835589646,
                39.9462815632287
              ],
              [
                116.34873020178564,
                39.94627754516333
              ],
              [
                116.34871193811438,
                39.94627383286896
              ],
              [
                116.34869357357493,
                39.94627042811239
              ],
              [
                116.34867511690764,
                39.94626733251404
              ],
              [
                116.3486565768966,
                39.9462645475472
              ],
              [
                116.34863796236564,
                39.946262074537344
              ],
              [
                116.348619282174,
                39.94625991466145
              ],
              [
                116.34860054521221,
                39.94625806894747
              ],
              [
                116.3485817603978,
                39.94625653827382
              ],
              [
                116.34856293667104,
                39.94625532336902
              ],
              [
                116.34854408299078,
                39.94625442481127
              ],
              [
                116.34852520833006,
                39.94625384302822
              ],
              [
                116.34850632167198,
                39.94625357829675
              ],
              [
                116.34848743200524,
                39.94625363074286
              ],
              [
                116.34846854832008,
                39.94625400034159
              ],
              [
                116.34844967960386,
                39.94625468691704
              ],
              [
                116.34843083483679,
                39.94625569014241
              ],
              [
                116.3484120229877,
                39.94625700954027
              ],
              [
                116.34839325300973,
                39.94625864448267
              ],
              [
                116.34837453383615,
                39.94626059419144
              ],
              [
                116.34835587437601,
                39.94626285773872
              ],
              [
                116.34833728350996,
                39.94626543404717
              ],
              [
                116.34831877008598,
                39.946268321890635
              ],
              [
                116.34830034291522,
                39.94627151989471
              ],
              [
                116.34828201076779,
                39.946275026537364
              ],
              [
                116.34826378236858,
                39.94627884014966
              ],
              [
                116.34824566639304,
                39.94628295891656
              ],
              [
                116.34822767146323,
                39.94628738087783
              ],
              [
                116.34820980614353,
                39.9462921039289
              ],
              [
                116.34819207893662,
                39.94629712582193
              ],
              [
                116.34817449827956,
                39.9463024441668
              ],
              [
                116.34815707253952,
                39.94630805643236
              ],
              [
                116.34813981001008,
                39.94631395994753
              ],
              [
                116.34812271890705,
                39.94632015190264
              ],
              [
                116.34810580736475,
                39.94632662935073
              ],
              [
                116.34808908343194,
                39.94633338920897
              ],
              [
                116.34807255506821,
                39.946340428260065
              ],
              [
                116.34805623013999,
                39.94634774315395
              ],
              [
                116.34804011641693,
                39.946355330409204
              ],
              [
                116.3480242215682,
                39.946363186414786
              ],
              [
                116.34800855315873,
                39.94637130743174
              ],
              [
                116.34799311864577,
                39.94637968959502
              ],
              [
                116.34797792537522,
                39.94638832891523
              ],
              [
                116.34796298057813,
                39.946397221280634
              ],
              [
                116.3479482913674,
                39.94640636245905
              ],
              [
                116.34793386473423,
                39.94641574809987
              ],
              [
                116.34791970754482,
                39.94642537373611
              ],
              [
                116.34790582653726,
                39.94643523478661
              ],
              [
                116.3478922283181,
                39.946445326558155
              ],
              [
                116.34787891935935,
                39.94645564424768
              ],
              [
                116.34786590599535,
                39.94646618294462
              ],
              [
                116.34785319441977,
                39.94647693763324
              ],
              [
                116.34784079068265,
                39.94648790319501
              ],
              [
                116.34782870068751,
                39.94649907441098
              ],
              [
                116.34781693018864,
                39.94651044596437
              ],
              [
                116.34780548478814,
                39.94652201244303
              ],
              [
                116.34779436993354,
                39.946533768342036
              ],
              [
                116.3477835909149,
                39.946545708066324
              ],
              [
                116.34777315286262,
                39.946557825933326
              ],
              [
                116.3477630607447,
                39.946570116175664
              ],
              [
                116.34775331936457,
                39.94658257294396
              ],
              [
                116.34774393335873,
                39.94659519030956
              ],
              [
                116.3477349071945,
                39.94660796226734
              ],
              [
                116.34772624516802,
                39.946620882738664
              ],
              [
                116.34771795140209,
                39.94663394557414
              ],
              [
                116.34771002984424,
                39.94664714455665
              ],
              [
                116.34770248426489,
                39.946660473404286
              ],
              [
                116.34769531825548,
                39.9466739257733
              ],
              [
                116.34768853522682,
                39.94668749526115
              ],
              [
                116.34768213840749,
                39.94670117540959
              ],
              [
                116.3476761308422,
                39.94671495970766
              ],
              [
                116.34767051539048,
                39.946728841594854
              ],
              [
                116.34766529472513,
                39.9467428144642
              ],
              [
                116.34766047133115,
                39.9467568716654
              ],
              [
                116.34765604750447,
                39.94677100650808
              ],
              [
                116.3476520253508,
                39.94678521226483
              ],
              [
                116.3476484067847,
                39.946799482174534
              ],
              [
                116.34764519352865,
                39.94681380944555
              ],
              [
                116.34764238711223,
                39.94682818725888
              ],
              [
                116.3476399888714,
                39.946842608771505
              ],
              [
                116.34763799994785,
                39.9468570671196
              ],
              [
                116.34763642128847,
                39.94687155542178
              ],
              [
                116.34763525364481,
                39.946886066782426
              ],
              [
                116.34763449757294,
                39.94690059429494
              ],
              [
                116.34763415343294,
                39.94691513104501
              ],
              [
                116.34763422138884,
                39.946929670113946
              ],
              [
                116.34763470140858,
                39.946944204581925
              ],
              [
                116.34763559326399,
                39.94695872753134
              ],
              [
                116.34763689653079,
                39.946973232050034
              ],
              [
                116.347638610589,
                39.94698771123464
              ],
              [
                116.3476407346231,
                39.94700215819385
              ],
              [
                116.34764326762233,
                39.94701656605162
              ],
              [
                116.34764620838146,
                39.947030927950614
              ],
              [
                116.34764955550108,
                39.9470452370553
              ],
              [
                116.34765330738837,
                39.94705948655529
              ],
              [
                116.34765397911482,
                39.947061779569296
              ],
              [
                116.34668878753104,
                39.987174845641405
              ],
              [
                116.34653998942692,
                39.9871700086139
              ],
              [
                116.34650093596856,
                39.987880838108644
              ],
              [
                116.34667165343609,
                39.987886387673385
              ],
              [
                116.3466603999983,
                39.98835370833845
              ],
              [
                116.34553459275342,
                39.98846894318548
              ],
              [
                116.34567975772902,
                39.98930809858276
              ],
              [
                116.34668166779394,
                39.989205546193254
              ],
              [
                116.34765698623524,
                40.01676764444439
              ],
              [
                116.3482145726377,
                40.016755974738935
              ],
              [
                116.34818770774456,
                40.016771061304006
              ],
              [
                116.34815170082628,
                40.016795787162145
              ],
              [
                116.34811901931323,
                40.016823107565386
              ],
              [
                116.34808997794684,
                40.01685275940619
              ],
              [
                116.34806485641334,
                40.01688445712396
              ],
              [
                116.34804389665031,
                40.01691789545496
              ],
              [
                116.3480273005164,
                40.016952752372084
              ],
              [
                116.34801522784731,
                40.01698869218612
              ],
              [
                116.34800779491609,
                40.01702536877845
              ],
              [
                116.34800507331317,
                40.017062428934416
              ],
              [
                116.34800708925674,
                40.01709951574481
              ],
              [
                116.34801382333978,
                40.01713627204321
              ],
              [
                116.3480252107168,
                40.01717234384562
              ],
              [
                116.34804114172796,
                40.01720738375959
              ],
              [
                116.34806146295496,
                40.01724105432982
              ],
              [
                116.34808597869832,
                40.01727303128813
              ],
              [
                116.3481144528618,
                40.01730300667642
              ],
              [
                116.34814661122601,
                40.01733069181255
              ],
              [
                116.34818214408931,
                40.01735582007063
              ],
              [
                116.34822070925023,
                40.017378149448916
              ],
              [
                116.34826193530316,
                40.017397464900434
              ],
              [
                116.34830542521517,
                40.01741358040426
              ],
              [
                116.34835076015,
                40.017426340756906
              ],
              [
                116.34839750350162,
                40.017435623067314
              ],
              [
                116.34844520509928,
                40.01744133794029
              ],
              [
                116.3484934055433,
                40.01744343033752
              ],
              [
                116.3485416406294,
                40.017441880107725
              ],
              [
                116.34858944581973,
                40.01743670218059
              ],
              [
                116.34863636071675,
                40.01742794642318
              ],
              [
                116.3486819334975,
                40.01741569715951
              ],
              [
                116.34872572526518,
                40.0174000723584
              ],
              [
                116.34876731427607,
                40.01738122249745
              ],
              [
                116.34880630000153,
                40.017359329113624
              ],
              [
                116.34884230698525,
                40.01733460305497
              ],
              [
                116.34887498845936,
                40.01730728244979
              ],
              [
                116.34890402968402,
                40.01727763041339
              ],
              [
                116.34892915097831,
                40.01724593251387
              ],
              [
                116.34895011041395,
                40.017212494022
              ],
              [
                116.34896670614481,
                40.017177636971
              ],
              [
                116.34897877835073,
                40.017141697055294
              ],
              [
                116.34898621077643,
                40.017105020397345
              ],
              [
                116.34898893185085,
                40.01706796021438
              ],
              [
                116.3489869153762,
                40.01703087341662
              ],
              [
                116.3489801807799,
                40.016994117170015
              ],
              [
                116.34896879292715,
                40.01695804545654
              ],
              [
                116.34895286149603,
                40.01692300566526
              ],
              [
                116.34893253992101,
                40.01688933524677
              ],
              [
                116.34890802391494,
                40.01685735846338
              ],
              [
                116.34887954958421,
                40.0168273832665
              ],
              [
                116.34884739115455,
                40.01679969833089
              ],
              [
                116.34881185833015,
                40.01677457027474
              ],
              [
                116.348773293311,
                40.01675224109207
              ],
              [
                116.34875702538346,
                40.0167446191859
              ],
              [
                116.34934301341346,
                40.01673234941928
              ],
              [
                116.34837301855677,
                39.98933979240684
              ],
              [
                116.34894916857172,
                39.98939749657056
              ],
              [
                116.34906405604474,
                39.98871877911988
              ],
              [
                116.34834849832164,
                39.98864711222822
              ],
              [
                116.34834319074575,
                39.988497175272315
              ],
              [
                116.34933863074225,
                39.94708575121638
              ],
              [
                116.34933953273436,
                39.94708312228243
              ],
              [
                116.3493439562364,
                39.94706898737365
              ],
              [
                116.3493479780583,
                39.94705478155621
              ],
              [
                116.34935159628616,
                39.94704051159135
              ],
              [
                116.34935480919813,
                39.94702618427082
              ],
              [
                116.34935761526525,
                39.94701180641372
              ],
              [
                116.34936001315226,
                39.94699738486311
              ],
              [
                116.34936200171812,
                39.946982926482946
              ],
              [
                116.3493635800167,
                39.94696843815465
              ],
              [
                116.34936474729702,
                39.94695392677387
              ],
              [
                116.34936550300378,
                39.94693939924727
              ],
              [
                116.34936584677757,
                39.94692486248918
              ],
              [
                116.34936577845502,
                39.946910323418315
              ],
              [
                116.34936529806899,
                39.94689578895446
              ],
              [
                116.34936440584826,
                39.946881266015275
              ],
              [
                116.34936310221782,
                39.946866761512844
              ],
              [
                116.34936138779835,
                39.94685228235054
              ]
            ]
          ],
          [
            [
              [
                116.34756107895738,
                40.01684978286034
              ],
              [
                116.34753260522358,
                40.0168198073372
              ],
              [
                116.34750044734682,
                40.01679212203216
              ],
              [
                116.347464915026,
                40.016766993566954
              ],
              [
                116.34742635045617,
                40.01674466393953
              ],
              [
                116.34738512503323,
                40.016725348193596
              ],
              [
                116.34734163577708,
                40.01670923234773
              ],
              [
                116.34729630150835,
                40.01669647160403
              ],
              [
                116.34724955881497,
                40.01668718885348
              ],
              [
                116.34720185784798,
                40.01668147349259
              ],
              [
                116.3471536579865,
                40.01667938056247
              ],
              [
                116.34710542341394,
                40.01668093021879
              ],
              [
                116.34705761864791,
                40.01668610753771
              ],
              [
                116.3470107040671,
                40.01669486265951
              ],
              [
                116.34696513147769,
                40.01670711126892
              ],
              [
                116.3469213397626,
                40.01672273540688
              ],
              [
                116.34687975065499,
                40.016741584606585
              ],
              [
                116.34684076467688,
                40.016763477342444
              ],
              [
                116.34680475728216,
                40.01678820277822
              ],
              [
                116.34677207524075,
                40.01681552279733
              ],
              [
                116.34674303329919,
                40.01684517429597
              ],
              [
                116.34671791114926,
                40.016876871716796
              ],
              [
                116.34669695073444,
                40.01691030979895
              ],
              [
                116.34668035391972,
                40.016945166517736
              ],
              [
                116.34666828054726,
                40.016981106185824
              ],
              [
                116.34666084689694,
                40.017017782686025
              ],
              [
                116.34665812456618,
                40.01705484280456
              ],
              [
                116.34666013978004,
                40.01709192963257
              ],
              [
                116.34666687313866,
                40.017128686003495
              ],
              [
                116.34667825980341,
                40.01716475793262
              ],
              [
                116.3466941901214,
                40.01719979802626
              ],
              [
                116.34671451068098,
                40.017233468827406
              ],
              [
                116.34673902578905,
                40.017265446065664
              ],
              [
                116.34676749935554,
                40.01729542178022
              ],
              [
                116.34679965716683,
                40.01732310728579
              ],
              [
                116.34683518952654,
                40.01734823595292
              ],
              [
                116.3468737542381,
                40.01737056577595
              ],
              [
                116.34691497990019,
                40.01738988170361
              ],
              [
                116.34695846948371,
                40.017405997710384
              ],
              [
                116.34700380415549,
                40.01741875858796
              ],
              [
                116.34705054731204,
                40.017428041440205
              ],
              [
                116.34709824878458,
                40.017433756866716
              ],
              [
                116.3471464491745,
                40.01743584982385
              ],
              [
                116.34719468427816,
                40.01743430015492
              ],
              [
                116.34724248955744,
                40.017429122784236
              ],
              [
                116.34728940461402,
                40.01742036757348
              ],
              [
                116.34733497762339,
                40.01740811884139
              ],
              [
                116.3473787696865,
                40.017392494551714
              ],
              [
                116.34742035905685,
                40.017373645177095
              ],
              [
                116.34745934520228,
                40.01735175224982
              ],
              [
                116.34749535266248,
                40.017327026613536
              ],
              [
                116.34752803466498,
                40.01729970639248
              ],
              [
                116.34755707646481,
                40.01727005469824
              ],
              [
                116.34758219837559,
                40.017238357095664
              ],
              [
                116.34760315846302,
                40.01720491885262
              ],
              [
                116.34761975487471,
                40.017170061999956
              ],
              [
                116.347631827784,
                40.01713412223018
              ],
              [
                116.34763926092877,
                40.01709744566435
              ],
              [
                116.34764198273109,
                40.01706038551882
              ],
              [
                116.34763996698614,
                40.0170232987034
              ],
              [
                116.34763323311427,
                40.01698654238426
              ],
              [
                116.34762184597373,
                40.01695047054407
              ],
              [
                116.34760591523579,
                40.016915430573114
              ],
              [
                116.34758559432818,
                40.01688175992368
              ],
              [
                116.34756107895738,
                40.01684978286034
              ]
            ]
          ],
          [
            [
              [
                116.35022649445432,
                40.016834943541845
              ],
              [
                116.35019433547174,
                40.0168072589757
              ],
              [
                116.35015880214384,
                40.016782131328625
              ],
              [
                116.35012023667538,
                40.016759802590705
              ],
              [
                116.35007901047089,
                40.01674048779706
              ],
              [
                116.3500355205578,
                40.016724372957086
              ],
              [
                116.34999018576302,
                40.01671161326321
              ],
              [
                116.34994344267962,
                40.01670233159633
              ],
              [
                116.34989574146236,
                40.016696617342475
              ],
              [
                116.34984754149279,
                40.01669452553213
              ],
              [
                116.34979930695532,
                40.01669607631016
              ],
              [
                116.34975150236725,
                40.016701254741925
              ],
              [
                116.3497045881056,
                40.016710010957006
              ],
              [
                116.3496590159734,
                40.01672226062958
              ],
              [
                116.3496152248492,
                40.01673788579037
              ],
              [
                116.34957363646045,
                40.0167567359627
              ],
              [
                116.34953465132229,
                40.01677862961165
              ],
              [
                116.34949864488048,
                40.01680335589214
              ],
              [
                116.34946596389581,
                40.01683067667948
              ],
              [
                116.34943692310458,
                40.01686032886246
              ],
              [
                116.34941180218755,
                40.01689202687715
              ],
              [
                116.34939084307629,
                40.016925465456964
              ],
              [
                116.34937424762326,
                40.01696032257244
              ],
              [
                116.34936217565752,
                40.01699626253238
              ],
              [
                116.34935474344537,
                40.017032939216826
              ],
              [
                116.34935202257036,
                40.017069999410204
              ],
              [
                116.3493540392436,
                40.01710708620295
              ],
              [
                116.34936077405109,
                40.0171438424288
              ],
              [
                116.34937216214033,
                40.01717991410449
              ],
              [
                116.34938809384467,
                40.01721495383876
              ],
              [
                116.34940841573909,
                40.01724862417805
              ],
              [
                116.3494329321177,
                40.01728060085642
              ],
              [
                116.34946140687812,
                40.01731057591843
              ],
              [
                116.34949356579526,
                40.0173382606851
              ],
              [
                116.34952909916213,
                40.0173633885341
              ],
              [
                116.34956766477237,
                40.01738571746763
              ],
              [
                116.34960889121606,
                40.017405032443
              ],
              [
                116.34965238145658,
                40.01742114744386
              ],
              [
                116.34969771665442,
                40.01743390727156
              ],
              [
                116.34974446020104,
                40.01744318904013
              ],
              [
                116.34979216192383,
                40.01744890335957
              ],
              [
                116.34984036242189,
                40.01745099519691
              ],
              [
                116.3498885974904,
                40.017449444406225
              ],
              [
                116.34993640259172,
                40.01744426592266
              ],
              [
                116.34998331732915,
                40.017435509618615
              ],
              [
                116.35002888988126,
                40.01742325982333
              ],
              [
                116.35007268135345,
                40.0174076345108
              ],
              [
                116.35011427000488,
                40.01738878416354
              ],
              [
                116.3501532553103,
                40.01736689032318
              ],
              [
                116.35018926181753,
                40.017342163842166
              ],
              [
                116.35022194276327,
                40.0173148428529
              ],
              [
                116.35025098341268,
                40.01728519047432
              ],
              [
                116.35027610409051,
                40.0172534922779
              ],
              [
                116.35029706287435,
                40.01722005353721
              ],
              [
                116.35031365792433,
                40.0171851962879
              ],
              [
                116.35032572942686,
                40.017149256226276
              ],
              [
                116.35033316113348,
                40.017112579476226
              ],
              [
                116.35033588148,
                40.01707551925588
              ],
              [
                116.3503338642757,
                40.017038432475765
              ],
              [
                116.35032712895494,
                40.01700167630171
              ],
              [
                116.35031574038995,
                40.01696560471499
              ],
              [
                116.35029980826569,
                40.01693056510343
              ],
              [
                116.35027948602325,
                40.016896894915874
              ],
              [
                116.35025496938201,
                40.016864918412445
              ],
              [
                116.35022649445432,
                40.016834943541845
              ]
            ]
          ]
        ]
      }
    }
  ]
}
