{
  "type": "FeatureCollection",
  "name": "civic_constellation_phasing",
  "features": [
    {
      "type": "Feature",
      "id": "PHASE-001",
      "properties": {
        "id": "PHASE-001",
        "layer": "PHASE",
        "source_type": "agent_generated_design",
        "confidence": "medium",
        "geometry_role": "design_proposal",
        "phase": "phase_1",
        "name_zh": "近期：中关村造物场与五园实验原型",
        "name_en": "Near term: Zhongguancun Open Works and Five Garden pilots",
        "area_sqm_declared": 1929201.877,
        "dependency": "official_boundary_controls_ownership_transport_and_professional_design"
      },
      "geometry": {
        "type": "Polygon",
        "coordinates": [
          [
            [
              116.34299999999999,
              40.0075
            ],
            [
              116.354,
              40.0075
            ],
            [
              116.354,
              40.026
            ],
            [
              116.34299999999999,
              40.025999999999996
            ],
            [
              116.34299999999999,
              40.0075
            ]
          ]
        ]
      }
    },
    {
      "type": "Feature",
      "id": "PHASE-002",
      "properties": {
        "id": "PHASE-002",
        "layer": "PHASE",
        "source_type": "agent_generated_design",
        "confidence": "medium",
        "geometry_role": "design_proposal",
        "phase": "phase_2",
        "name_zh": "中期：未来书院与知识山脊公共天幕",
        "name_en": "Mid term: Future Academy and Knowledge Ridge canopy",
        "area_sqm_declared": 1043236.909,
        "dependency": "official_boundary_controls_ownership_transport_and_professional_design"
      },
      "geometry": {
        "type": "Polygon",
        "coordinates": [
          [
            [
              116.34200000000001,
              39.98349999999999
            ],
            [
              116.353,
              39.9835
            ],
            [
              116.353,
              39.99349999999999
            ],
            [
              116.34200000000001,
              39.99349999999999
            ],
            [
              116.34200000000001,
              39.98349999999999
            ]
          ]
        ]
      }
    },
    {
      "type": "Feature",
      "id": "PHASE-003",
      "properties": {
        "id": "PHASE-003",
        "layer": "PHASE",
        "source_type": "agent_generated_design",
        "confidence": "medium",
        "geometry_role": "design_proposal",
        "phase": "phase_3",
        "name_zh": "远期：世界发布庭与长期公共信托",
        "name_en": "Long term: World Release Forum and civic stewardship",
        "area_sqm_declared": 720454.219,
        "dependency": "official_boundary_controls_ownership_transport_and_professional_design"
      },
      "geometry": {
        "type": "Polygon",
        "coordinates": [
          [
            [
              116.34200000000001,
              39.943999999999996
            ],
            [
              116.35500000000002,
              39.943999999999996
            ],
            [
              116.35500000000002,
              39.94983999999999
            ],
            [
              116.34200000000001,
              39.94984
            ],
            [
              116.34200000000001,
              39.943999999999996
            ]
          ]
        ]
      }
    }
  ]
}
