{
  "type": "FeatureCollection",
  "name": "civic_constellation_mobility",
  "features": [
    {
      "type": "Feature",
      "id": "ROAD-001",
      "properties": {
        "id": "ROAD-001",
        "layer": "ROAD_CENTERLINE",
        "source_type": "agent_generated_design",
        "confidence": "medium",
        "geometry_role": "design_proposal",
        "road_class": "pedestrian",
        "name_zh": "历史轨：京张工程记忆线",
        "name_en": "History Rail: Jing-Zhang engineering memory",
        "mode_priority": [
          "walk",
          "wheelchair"
        ],
        "control_status": "conceptual_alignment_subject_to_transport_heritage_and_redline_review"
      },
      "geometry": {
        "type": "LineString",
        "coordinates": [
          [
            116.34844149684695,
            39.946919671220236
          ],
          [
            116.34744146140393,
            39.98849967043275
          ],
          [
            116.3484414372617,
            40.01674967074601
          ]
        ]
      }
    },
    {
      "type": "Feature",
      "id": "ROAD-002",
      "properties": {
        "id": "ROAD-002",
        "layer": "ROAD_CENTERLINE",
        "source_type": "agent_generated_design",
        "confidence": "medium",
        "geometry_role": "design_proposal",
        "road_class": "greenway",
        "name_zh": "未来轨：中关村开放知识线",
        "name_en": "Future Rail: Zhongguancun open-knowledge greenway",
        "mode_priority": [
          "walk",
          "wheelchair",
          "cycle",
          "service"
        ],
        "control_status": "conceptual_alignment_subject_to_transport_and_redline_review"
      },
      "geometry": {
        "type": "LineString",
        "coordinates": [
          [
            116.34855850315402,
            39.946920328750245
          ],
          [
            116.34755853859704,
            39.988500329537686
          ],
          [
            116.3485585627393,
            40.016750329224415
          ]
        ]
      }
    },
    {
      "type": "Feature",
      "id": "ROAD-003",
      "properties": {
        "id": "ROAD-003",
        "layer": "ROAD_CENTERLINE",
        "source_type": "agent_generated_design",
        "confidence": "medium",
        "geometry_role": "design_proposal",
        "road_class": "pedestrian",
        "name_zh": "中关村造物场无障碍公共游线",
        "name_en": "ZHONGGUANCUN OPEN WORKS accessible civic paths",
        "mode_priority": [
          "walk",
          "wheelchair"
        ],
        "control_status": "conceptual_alignment_subject_to_professional_review"
      },
      "geometry": {
        "type": "MultiLineString",
        "coordinates": [
          [
            [
              116.3485192682068,
              40.014723742038115
            ],
            [
              116.34797776375724,
              40.016116637835616
            ],
            [
              116.34608130664884,
              40.01858262095957
            ]
          ],
          [
            [
              116.3485192682068,
              40.014723742038115
            ],
            [
              116.34823543740846,
              40.016118087343926
            ],
            [
              116.34725259238506,
              40.01858922451957
            ]
          ],
          [
            [
              116.3485192682068,
              40.014723742038115
            ],
            [
              116.34850599476235,
              40.01611960871107
            ],
            [
              116.34848244282377,
              40.018596145517606
            ]
          ],
          [
            [
              116.3485192682068,
              40.014723742038115
            ],
            [
              116.34877655213677,
              40.01612112944661
            ],
            [
              116.3497122936875,
              40.01860305346494
            ]
          ],
          [
            [
              116.3485192682068,
              40.014723742038115
            ],
            [
              116.34903422584583,
              40.01612257717898
            ],
            [
              116.3508835806188,
              40.01860962032907
            ]
          ]
        ]
      }
    },
    {
      "type": "Feature",
      "id": "ROAD-004",
      "properties": {
        "id": "ROAD-004",
        "layer": "ROAD_CENTERLINE",
        "source_type": "agent_generated_design",
        "confidence": "medium",
        "geometry_role": "design_proposal",
        "road_class": "pedestrian",
        "name_zh": "未来书院无障碍公共游线",
        "name_en": "FUTURE ACADEMY accessible civic paths",
        "mode_priority": [
          "walk",
          "wheelchair"
        ],
        "control_status": "conceptual_alignment_subject_to_professional_review"
      },
      "geometry": {
        "type": "MultiLineString",
        "coordinates": [
          [
            [
              116.34516639330285,
              39.98825224189929
            ],
            [
              116.3453980332895,
              39.989591320252515
            ],
            [
              116.34745246349253,
              39.98938103154083
            ]
          ],
          [
            [
              116.34745246349253,
              39.98938103154083
            ],
            [
              116.34760315194143,
              39.9893656057873
            ],
            [
              116.34752830781225,
              39.98893302843277
            ]
          ],
          [
            [
              116.34752830781225,
              39.98893302843277
            ],
            [
              116.3473949571253,
              39.98816228696312
            ]
          ],
          [
            [
              116.3473949571253,
              39.98816228696312
            ],
            [
              116.34737146953778,
              39.98802653144933
            ],
            [
              116.34637056090767,
              39.98812898932531
            ]
          ],
          [
            [
              116.34637056090767,
              39.98812898932531
            ],
            [
              116.34516639330285,
              39.98825224189929
            ]
          ],
          [
            [
              116.34723494108877,
              39.98914891101485
            ],
            [
              116.34567975772902,
              39.98930809858276
            ],
            [
              116.34553459275342,
              39.98846894318548
            ],
            [
              116.34708975736633,
              39.98830975739217
            ],
            [
              116.34723494108877,
              39.98914891101485
            ]
          ],
          [
            [
              116.34763191148146,
              39.98832104426568
            ],
            [
              116.34752830781225,
              39.98893302843277
            ]
          ],
          [
            [
              116.34752830781225,
              39.98893302843277
            ],
            [
              116.34745246349253,
              39.98938103154083
            ]
          ],
          [
            [
              116.34745246349253,
              39.98938103154083
            ],
            [
              116.34743234523243,
              39.989499866602905
            ],
            [
              116.34923192758397,
              39.98968010798591
            ],
            [
              116.34943146350601,
              39.98850128234289
            ],
            [
              116.34763191148146,
              39.98832104426568
            ]
          ],
          [
            [
              116.34894916857172,
              39.98939749657056
            ],
            [
              116.34779976201736,
              39.989282375102846
            ],
            [
              116.3479146606429,
              39.98860365886784
            ],
            [
              116.34906405604474,
              39.98871877911988
            ],
            [
              116.34894916857172,
              39.98939749657056
            ]
          ],
          [
            [
              116.34622630602077,
              39.986907421397554
            ],
            [
              116.34615956331223,
              39.988122129794824
            ],
            [
              116.34637056090767,
              39.98812898932531
            ]
          ],
          [
            [
              116.34637056090767,
              39.98812898932531
            ],
            [
              116.3473949571253,
              39.98816228696312
            ]
          ],
          [
            [
              116.3473949571253,
              39.98816228696312
            ],
            [
              116.34855755862418,
              39.98820006591136
            ],
            [
              116.34862425897089,
              39.98698535580923
            ],
            [
              116.34622630602077,
              39.986907421397554
            ]
          ],
          [
            [
              116.34824386276041,
              39.98793748410219
            ],
            [
              116.34650093596856,
              39.987880838108644
            ],
            [
              116.34653998942692,
              39.9871700086139
            ],
            [
              116.34828289820105,
              39.98722665388234
            ],
            [
              116.34824386276041,
              39.98793748410219
            ]
          ]
        ]
      }
    },
    {
      "type": "Feature",
      "id": "ROAD-005",
      "properties": {
        "id": "ROAD-005",
        "layer": "ROAD_CENTERLINE",
        "source_type": "agent_generated_design",
        "confidence": "medium",
        "geometry_role": "design_proposal",
        "road_class": "pedestrian",
        "name_zh": "世界发布庭无障碍公共游线",
        "name_en": "WORLD RELEASE FORUM accessible civic paths",
        "mode_priority": [
          "walk",
          "wheelchair"
        ],
        "control_status": "conceptual_alignment_subject_to_professional_review"
      },
      "geometry": {
        "type": "MultiLineString",
        "coordinates": [
          [
            [
              116.34949513490457,
              39.94723597518816
            ],
            [
              116.34948106266029,
              39.94726104964832
            ],
            [
              116.34946592423363,
              39.947285753476415
            ],
            [
              116.34944973607534,
              39.94731005982528
            ],
            [
              116.34943251577705,
              39.947333942279585
            ],
            [
              116.34941428205214,
              39.94735737488475
            ],
            [
              116.34939505471537,
              39.947380332174966
            ],
            [
              116.34937485466146,
              39.94740278920102
            ],
            [
              116.34935370384225,
              39.94742472155731
            ],
            [
              116.34933162524294,
              39.94744610540839
            ],
            [
              116.34930864285704,
              39.94746691751494
            ],
            [
              116.3492847816604,
              39.94748713525896
            ],
            [
              116.34926006758393,
              39.94750673666834
            ],
            [
              116.34923452748556,
              39.9475257004408
            ],
            [
              116.34920818912099,
              39.94754400596699
            ],
            [
              116.34918108111344,
              39.947561633352905
            ],
            [
              116.34915323292276,
              39.94757856344157
            ],
            [
              116.34912467481313,
              39.94759477783371
            ],
            [
              116.34909543782048,
              39.947610258907915
            ],
            [
              116.34906555371848,
              39.94762498983968
            ],
            [
              116.34903505498414,
              39.947638954619755
            ],
            [
              116.34900397476257,
              39.94765213807149
            ],
            [
              116.34897234683086,
              39.94766452586736
            ],
            [
              116.34894020556133,
              39.94767610454458
            ],
            [
              116.34890758588435,
              39.94768686151964
            ],
            [
              116.34887452325016,
              39.94769678510209
            ],
            [
              116.34884105359055,
              39.947705864507114
            ],
            [
              116.34880721327963,
              39.947714089867425
            ],
            [
              116.34877303909435,
              39.947721452243805
            ],
            [
              116.34873856817462,
              39.947727943634995
            ],
            [
              116.34870383798285,
              39.947733556986215
            ],
            [
              116.34866888626321,
              39.94773828619701
            ],
            [
              116.34863375100066,
              39.94774212612774
            ],
            [
              116.3485984703797,
              39.94774507260525
            ],
            [
              116.34856308274277,
              39.947747122427344
            ],
            [
              116.34852762654863,
              39.94774827336632
            ],
            [
              116.34849214033058,
              39.9477485241714
            ],
            [
              116.34845666265451,
              39.94774787456998
            ],
            [
              116.34842123207709,
              39.947746325268064
            ],
            [
              116.34838588710372,
              39.94774387794944
            ],
            [
              116.34835066614683,
              39.94774053527379
            ],
            [
              116.34831560748398,
              39.94773630087392
            ],
            [
              116.3482807492164,
              39.94773117935172
            ],
            [
              116.34824612922746,
              39.9477251762732
            ],
            [
              116.34821178514159,
              39.94771829816239
            ],
            [
              116.34817775428328,
              39.947710552494364
            ],
            [
              116.34814407363663,
              39.947701947686966
            ],
            [
              116.34811077980508,
              39.94769249309178
            ],
            [
              116.34807790897163,
              39.94768219898389
            ],
            [
              116.3480454968595,
              39.94767107655079
            ],
            [
              116.3480135786934,
              39.947659137880116
            ],
            [
              116.3479821891611,
              39.94764639594662
            ],
            [
              116.34795136237584,
              39.947632864598
            ],
            [
              116.34792113183924,
              39.94761855853983
            ],
            [
              116.34789153040484,
              39.94760349331968
            ],
            [
              116.34786259024243,
              39.94758768531011
            ],
            [
              116.34783434280305,
              39.947571151690916
            ],
            [
              116.34780681878489,
              39.947553910430464
            ],
            [
              116.34778004809982,
              39.94753598026617
            ],
            [
              116.34775405984098,
              39.947517380684076
            ],
            [
              116.34772888225112,
              39.94749813189776
            ],
            [
              116.34770454269189,
              39.94747825482631
            ],
            [
              116.34768106761406,
              39.94745777107156
            ],
            [
              116.34765848252898,
              39.94743670289471
            ],
            [
              116.34763681198058,
              39.94741507319204
            ],
            [
              116.34761607951891,
              39.94739290547007
            ],
            [
              116.34759630767444,
              39.94737022381995
            ],
            [
              116.34757751793359,
              39.94734705289143
            ],
            [
              116.34755973071542,
              39.94732341786587
            ],
            [
              116.34754296534945,
              39.94729934442902
            ],
            [
              116.34752724005456,
              39.947274858743015
            ],
            [
              116.34751257191932,
              39.94724998741802
            ],
            [
              116.34749897688334,
              39.94722475748325
            ]
          ],
          [
            [
              116.34750487434877,
              39.94660401632618
            ],
            [
              116.34751894717346,
              39.946578942107806
            ],
            [
              116.34753408613777,
              39.94655423853531
            ],
            [
              116.34755027478862,
              39.94652993245482
            ],
            [
              116.34756749553226,
              39.94650605028045
            ],
            [
              116.34758572965337,
              39.94648261796558
            ],
            [
              116.34760495733546,
              39.946459660974746
            ],
            [
              116.34762515768234,
              39.94643720425587
            ],
            [
              116.34764630874086,
              39.946415272213244
            ],
            [
              116.34766838752485,
              39.94639388868088
            ],
            [
              116.34769137003987,
              39.946373076896776
            ],
            [
              116.34771523130965,
              39.946352859477514
            ],
            [
              116.34773994540284,
              39.946333258393786
            ],
            [
              116.34776548546151,
              39.946314294946454
            ],
            [
              116.34779182373013,
              39.946295989743476
            ],
            [
              116.34781893158585,
              39.946278362677404
            ],
            [
              116.34784677956955,
              39.9462614329039
            ],
            [
              116.34787533741786,
              39.9462452188208
            ],
            [
              116.34790457409609,
              39.9462297380482
            ],
            [
              116.34793445783188,
              39.94621500740929
            ],
            [
              116.34796495614978,
              39.946201042912065
            ],
            [
              116.34799603590653,
              39.946187859731936
            ],
            [
              116.34802766332707,
              39.946175472195215
            ],
            [
              116.34805980404127,
              39.9461638937636
            ],
            [
              116.3480924231212,
              39.9461531370195
            ],
            [
              116.3481254851192,
              39.94614321365241
            ],
            [
              116.34815895410624,
              39.946134134446154
            ],
            [
              116.34819279371118,
              39.946125909267224
            ],
            [
              116.34822696716003,
              39.94611854705397
            ],
            [
              116.3482614373162,
              39.94611205580701
            ],
            [
              116.34829616672054,
              39.946106442580444
            ],
            [
              116.34833111763231,
              39.94610171347423
            ],
            [
              116.34836625207004,
              39.94609787362751
            ],
            [
              116.34840153185287,
              39.94609492721312
            ],
            [
              116.34843691864197,
              39.94609287743293
            ],
            [
              116.34847237398225,
              39.9460917265145
            ],
            [
              116.34850785934414,
              39.946091475708535
            ],
            [
              116.34854333616542,
              39.9460921252876
            ],
            [
              116.34857876589324,
              39.94609367454579
            ],
            [
              116.34861411002578,
              39.94609612179955
            ],
            [
              116.34864933015436,
              39.94609946438941
            ],
            [
              116.34868438800493,
              39.946103698683
            ],
            [
              116.34871924547986,
              39.946108820078855
            ],
            [
              116.34875386469918,
              39.94611482301156
            ],
            [
              116.34878820804184,
              39.946121700957654
            ],
            [
              116.34882223818656,
              39.946129446442825
            ],
            [
              116.34885591815234,
              39.946138051050006
            ],
            [
              116.34888921133872,
              39.94614750542849
            ],
            [
              116.34892208156548,
              39.94615779930412
            ],
            [
              116.34895449311203,
              39.94616892149045
            ],
            [
              116.34898641075617,
              39.94618085990087
            ],
            [
              116.34901779981233,
              39.946193601561774
            ],
            [
              116.34904862616935,
              39.94620713262666
            ],
            [
              116.34907885632751,
              39.946221438391184
            ],
            [
              116.34910845743491,
              39.94623650330905
            ],
            [
              116.34913739732315,
              39.946252311009005
            ],
            [
              116.34916564454241,
              39.946268844312605
            ],
            [
              116.34919316839544,
              39.946286085252844
            ],
            [
              116.34921993897107,
              39.94630401509373
            ],
            [
              116.34924592717668,
              39.946322614350585
            ],
            [
              116.34927110476971,
              39.94634186281127
            ],
            [
              116.34929544438857,
              39.94636173955812
            ],
            [
              116.34931891958212,
              39.946382222990685
            ],
            [
              116.34934150483858,
              39.94640329084917
            ],
            [
              116.34936317561325,
              39.9464249202387
            ],
            [
              116.34938390835511,
              39.94644708765411
            ],
            [
              116.34940368053246,
              39.94646976900554
            ],
            [
              116.34942247065746,
              39.94649293964459
            ],
            [
              116.34944025830934,
              39.94651657439116
            ],
            [
              116.34945702415672,
              39.94654064756067
            ],
            [
              116.34947274997864,
              39.94656513299217
            ],
            [
              116.34948741868422,
              39.94659000407661
            ],
            [
              116.34950101433138,
              39.9466152337858
            ]
          ],
          [
            [
              116.34992780514055,
              39.94737335305792
            ],
            [
              116.3499076147102,
              39.947409329532675
            ],
            [
              116.3498858945266,
              39.94744477423535
            ],
            [
              116.34986266819227,
              39.947479648645675
            ],
            [
              116.34983796094669,
              39.947513914863094
            ],
            [
              116.34981179963889,
              39.94754753564799
            ],
            [
              116.34978421269824,
              39.947580474462136
            ],
            [
              116.34975523010358,
              39.94761269550836
            ],
            [
              116.34972488335069,
              39.94764416376954
            ],
            [
              116.34969320541795,
              39.947674845046606
            ],
            [
              116.34966023073066,
              39.94770470599572
            ],
            [
              116.3496259951235,
              39.947733714164514
            ],
            [
              116.34959053580164,
              39.947761838027375
            ],
            [
              116.3495538913003,
              39.94778904701969
            ],
            [
              116.34951610144293,
              39.94781531157114
            ],
            [
              116.34947720729782,
              39.947840603137664
            ],
            [
              116.34943725113357,
              39.94786489423274
            ],
            [
              116.34939627637307,
              39.94788815845699
            ],
            [
              116.34935432754638,
              39.94791037052711
            ],
            [
              116.34931145024231,
              39.94793150630316
            ],
            [
              116.34926769105883,
              39.94795154281498
            ],
            [
              116.34922309755247,
              39.94797045828694
            ],
            [
              116.34917771818664,
              39.94798823216188
            ],
            [
              116.3491316022789,
              39.948004845123194
            ],
            [
              116.34908479994742,
              39.94802027911599
            ],
            [
              116.34903736205648,
              39.94803451736665
            ],
            [
              116.34898934016115,
              39.9480475444011
            ],
            [
              116.34894078645135,
              39.948059346061584
            ],
            [
              116.34889175369496,
              39.94806990952207
            ],
            [
              116.34884229518067,
              39.94807922330223
            ],
            [
              116.3487924646599,
              39.94808727727984
            ],
            [
              116.34874231628841,
              39.94809406270186
            ],
            [
              116.34869190456749,
              39.94809957219391
            ],
            [
              116.34864128428468,
              39.94810379976827
            ],
            [
              116.34859051045416,
              39.94810674083045
            ],
            [
              116.34853963825711,
              39.948108392184096
            ],
            [
              116.34848872298151,
              39.948108752034564
            ],
            [
              116.34843781996229,
              39.94810781999077
            ],
            [
              116.34838698452096,
              39.948105597065684
            ],
            [
              116.3483362719056,
              39.948102085675224
            ],
            [
              116.3482857372308,
              39.9480972896356
            ],
            [
              116.34823543541772,
              39.94809121415916
            ],
            [
              116.34818542113436,
              39.94808386584876
            ],
            [
              116.34813574873628,
              39.94807525269059
            ],
            [
              116.34808647220731,
              39.94806538404548
            ],
            [
              116.34803764510109,
              39.94805427063865
            ],
            [
              116.34798932048267,
              39.948041924548185
            ],
            [
              116.34794155087091,
              39.94802835919185
            ],
            [
              116.34789438818149,
              39.94801358931244
            ],
            [
              116.3478478836703,
              39.94799763096188
            ],
            [
              116.34780208787787,
              39.94798050148365
            ],
            [
              116.3477570505743,
              39.94796221949404
            ],
            [
              116.3477128207054,
              39.94794280486185
            ],
            [
              116.34766944633918,
              39.94792227868682
            ],
            [
              116.34762697461393,
              39.94790066327665
            ],
            [
              116.34758545168668,
              39.94787798212287
            ],
            [
              116.34754492268326,
              39.94785425987515
            ],
            [
              116.34750543164918,
              39.94782952231463
            ],
            [
              116.3474670215017,
              39.947803796325836
            ],
            [
              116.34742973398329,
              39.94777710986748
            ],
            [
              116.34739360961623,
              39.94774949194207
            ],
            [
              116.34735868765851,
              39.94772097256437
            ],
            [
              116.34732500606124,
              39.947691582728815
            ],
            [
              116.34729260142741,
              39.94766135437577
            ],
            [
              116.34726150897205,
              39.947630320356865
            ],
            [
              116.34723176248403,
              39.94759851439928
            ],
            [
              116.34720339428927,
              39.947565971069025
            ],
            [
              116.3471764352157,
              39.94753272573345
            ],
            [
              116.34715091455973,
              39.9474988145228
            ],
            [
              116.34712686005435,
              39.947464274290894
            ],
            [
              116.34710429783914,
              39.94742914257508
            ],
            [
              116.3470832524317,
              39.947393457555485
            ],
            [
              116.34706374670114,
              39.9473572580135
            ]
          ],
          [
            [
              116.34707221390842,
              39.946466629473505
            ],
            [
              116.34709240553354,
              39.94643065349646
            ],
            [
              116.34711412682391,
              39.946395209320016
            ],
            [
              116.34713735417223,
              39.946360335462145
            ],
            [
              116.34716206233463,
              39.94632606982101
            ],
            [
              116.34718822445807,
              39.94629244963371
            ],
            [
              116.34721581210962,
              39.94625951143588
            ],
            [
              116.34724479530738,
              39.94622729102202
            ],
            [
              116.34727514255295,
              39.94619582340649
            ],
            [
              116.34730682086577,
              39.94616514278556
            ],
            [
              116.34733979581893,
              39.94613528250024
            ],
            [
              116.34737403157658,
              39.946106274999984
            ],
            [
              116.34740949093292,
              39.94607815180751
            ],
            [
              116.34744613535251,
              39.946050943484494
            ],
            [
              116.34748392501236,
              39.9460246795984
            ],
            [
              116.34752281884494,
              39.94599938869034
            ],
            [
              116.34756277458307,
              39.945975098244034
            ],
            [
              116.34760374880568,
              39.94595183465598
            ],
            [
              116.34764569698504,
              39.945929623206766
            ],
            [
              116.34768857353518,
              39.945908488033574
            ],
            [
              116.34773233186142,
              39.94588845210404
            ],
            [
              116.34777692441091,
              39.94586953719115
            ],
            [
              116.34782230272444,
              39.945851763849724
            ],
            [
              116.34786841748898,
              39.94583515139401
            ],
            [
              116.34791521859137,
              39.9458197178767
            ],
            [
              116.34796265517267,
              39.945805480069346
            ],
            [
              116.34801067568345,
              39.94579245344413
            ],
            [
              116.34805922793987,
              39.94578065215698
            ],
            [
              116.34810825918034,
              39.94577008903234
            ],
            [
              116.34815771612273,
              39.94576077554906
            ],
            [
              116.34820754502249,
              39.94575272182809
            ],
            [
              116.34825769173092,
              39.94574593662134
            ],
            [
              116.3483081017539,
              39.94574042730227
            ],
            [
              116.3483587203113,
              39.945736199857826
            ],
            [
              116.34840949239644,
              39.94573325888195
            ],
            [
              116.34846036283572,
              39.94573160757061
            ],
            [
              116.34851127634879,
              39.94573124771828
            ],
            [
              116.34856217760841,
              39.945732179716046
            ],
            [
              116.34861301130071,
              39.945734402551125
            ],
            [
              116.34866372218517,
              39.94573791380801
            ],
            [
              116.34871425515477,
              39.94574270967107
            ],
            [
              116.34876455529574,
              39.94574878492872
            ],
            [
              116.34881456794733,
              39.94575613297904
            ],
            [
              116.34886423876111,
              39.94576474583698
            ],
            [
              116.34891351376008,
              39.945774614143055
            ],
            [
              116.3489623393973,
              39.94578572717343
            ],
            [
              116.3490106626141,
              39.94579807285174
            ],
            [
              116.34905843089768,
              39.94581163776196
            ],
            [
              116.34910559233818,
              39.94582640716326
            ],
            [
              116.34915209568507,
              39.945842365005795
            ],
            [
              116.34919789040298,
              39.94585949394828
            ],
            [
              116.34924292672633,
              39.94587777537674
            ],
            [
              116.34928715571371,
              39.945897189424834
            ],
            [
              116.34933052930087,
              39.945917714995375
            ],
            [
              116.34937300035294,
              39.945939329783236
            ],
            [
              116.3494145227158,
              39.94596201029966
            ],
            [
              116.34945505126606,
              39.94598573189769
            ],
            [
              116.34949454196021,
              39.94601046879905
            ],
            [
              116.34953295188241,
              39.946036194122044
            ],
            [
              116.34957023929121,
              39.94606287991088
            ],
            [
              116.34960636366486,
              39.946090497165955
            ],
            [
              116.34964128574525,
              39.94611901587541
            ],
            [
              116.34967496758075,
              39.946148405047715
            ],
            [
              116.34970737256738,
              39.946178632745394
            ],
            [
              116.34973846548856,
              39.94620966611965
            ],
            [
              116.3497682125534,
              39.94624147144613
            ],
            [
              116.34979658143344,
              39.946274014161546
            ],
            [
              116.3498235412978,
              39.946307258901214
            ],
            [
              116.34984906284662,
              39.946341169537504
            ],
            [
              116.34987311834304,
              39.946375709219076
            ],
            [
              116.34989568164318,
              39.94641084041097
            ],
            [
              116.3499167282247,
              39.946446524935354
            ],
            [
              116.3499362352134,
              39.946482724012974
            ]
          ],
          [
            [
              116.35036047712568,
              39.947510729323504
            ],
            [
              116.350334168619,
              39.947557607858585
            ],
            [
              116.35030586678013,
              39.94760379348413
            ],
            [
              116.35027560236287,
              39.94764923600664
            ],
            [
              116.3502434082542,
              39.947693886040085
            ],
            [
              116.35020931943842,
              39.9477376950596
            ],
            [
              116.35017337295918,
              39.94778061545425
            ],
            [
              116.35013560787918,
              39.947822600578725
            ],
            [
              116.35009606523785,
              39.9478636048041
            ],
            [
              116.35005478800662,
              39.9479035835674
            ],
            [
              116.35001182104236,
              39.94794249342001
            ],
            [
              116.34996721103849,
              39.94798029207499
            ],
            [
              116.34992100647439,
              39.94801693845288
            ],
            [
              116.3498732575626,
              39.94805239272655
            ],
            [
              116.34982401619432,
              39.948086616364336
            ],
            [
              116.34977333588294,
              39.948119572171954
            ],
            [
              116.34972127170599,
              39.948151224333
            ],
            [
              116.34966788024522,
              39.9481815384478
            ],
            [
              116.3496132195251,
              39.94821048157084
            ],
            [
              116.34955734894972,
              39.94823802224656
            ],
            [
              116.34950032923837,
              39.948264130543556
            ],
            [
              116.34944222235937,
              39.94828877808714
            ],
            [
              116.34938309146277,
              39.94831193809011
            ],
            [
              116.34932300081184,
              39.948333585381945
            ],
            [
              116.34926201571301,
              39.94835369643614
            ],
            [
              116.34920020244503,
              39.94837224939575
            ],
            [
              116.34913762818687,
              39.94838922409719
            ],
            [
              116.34907436094468,
              39.948404602092154
            ],
            [
              116.34901046947797,
              39.94841836666758
            ],
            [
              116.34894602322476,
              39.94843050286397
            ],
            [
              116.34888109222611,
              39.94844099749153
            ],
            [
              116.34881574705007,
              39.94844983914455
            ],
            [
              116.34875005871483,
              39.948457018213794
            ],
            [
              116.3486840986117,
              39.948462526896954
            ],
            [
              116.34861793842734,
              39.948466359207124
            ],
            [
              116.34855165006593,
              39.94846851097933
            ],
            [
              116.34848530557096,
              39.94846897987502
            ],
            [
              116.34841897704698,
              39.948467765384635
            ],
            [
              116.3483527365811,
              39.94846486882812
            ],
            [
              116.3482866561648,
              39.94846029335358
            ],
            [
              116.3482208076155,
              39.94845404393374
            ],
            [
              116.34815526249861,
              39.94844612736063
            ],
            [
              116.34809009204965,
              39.948436552238164
            ],
            [
              116.3480253670969,
              39.94842532897279
            ],
            [
              116.34796115798437,
              39.9484124697622
            ],
            [
              116.34789753449532,
              39.94839798858201
            ],
            [
              116.34783456577638,
              39.948381901170634
            ],
            [
              116.34777232026248,
              39.94836422501217
            ],
            [
              116.34771086560241,
              39.94834497931734
            ],
            [
              116.34765026858523,
              39.948324185002654
            ],
            [
              116.34759059506774,
              39.94830186466768
            ],
            [
              116.34753190990295,
              39.94827804257042
            ],
            [
              116.34747427686939,
              39.94825274460103
            ],
            [
              116.34741775860206,
              39.948225998253584
            ],
            [
              116.34736241652413,
              39.94819783259628
            ],
            [
              116.34730831078022,
              39.94816827823974
            ],
            [
              116.34725550017117,
              39.948137367303836
            ],
            [
              116.34720404208996,
              39.94810513338271
            ],
            [
              116.3471539924594,
              39.94807161150828
            ],
            [
              116.34710540567137,
              39.94803683811217
            ],
            [
              116.34705833452773,
              39.9480008509861
            ],
            [
              116.34701283018279,
              39.947963689240815
            ],
            [
              116.34696894208797,
              39.94792539326352
            ],
            [
              116.3469267179378,
              39.94788600467411
            ],
            [
              116.34688620361827,
              39.94784556627979
            ],
            [
              116.34684744315683,
              39.94780412202863
            ],
            [
              116.34681047867475,
              39.94776171696176
            ],
            [
              116.3467753503411,
              39.94771839716444
            ],
            [
              116.34674209632931,
              39.94767420971594
            ],
            [
              116.34671075277558,
              39.94762920263843
            ],
            [
              116.34668135373965,
              39.9475834248447
            ],
            [
              116.34665393116785,
              39.94753692608506
            ],
            [
              116.34662851485828,
              39.94748975689322
            ]
          ],
          [
            [
              116.34663955521732,
              39.946329241016805
            ],
            [
              116.34666586575257,
              39.9462823633268
            ],
            [
              116.34669416947067,
              39.94623617859473
            ],
            [
              116.34672443560954,
              39.94619073701023
            ],
            [
              116.34675663127486,
              39.94614608795523
            ],
            [
              116.34679072147547,
              39.94610227995037
            ],
            [
              116.3468266691618,
              39.946059360602156
            ],
            [
              116.34686443526579,
              39.94601737655135
            ],
            [
              116.3469039787436,
              39.94597637342224
            ],
            [
              116.3469452566202,
              39.945936395772996
            ],
            [
              116.34698822403587,
              39.94589748704741
            ],
            [
              116.34703283429525,
              39.945859689527545
            ],
            [
              116.34707903891784,
              39.945823044287884
            ],
            [
              116.34712678769088,
              39.94578759115065
            ],
            [
              116.34717602872377,
              39.94575336864254
            ],
            [
              116.34722670850452,
              39.94572041395294
            ],
            [
              116.34727877195793,
              39.945688762893404
            ],
            [
              116.34733216250542,
              39.945658449858804
            ],
            [
              116.3473868221265,
              39.945629507789974
            ],
            [
              116.34744269142178,
              39.945601968137886
            ],
            [
              116.34749970967762,
              39.945575860829486
            ],
            [
              116.347557814932,
              39.94555121423518
            ],
            [
              116.34761694404186,
              39.945528055138034
            ],
            [
              116.34767703275182,
              39.94550640870464
            ],
            [
              116.34773801576377,
              39.94548629845779
            ],
            [
              116.3477998268081,
              39.94546774625087
            ],
            [
              116.34786239871552,
              39.945450772244236
            ],
            [
              116.34792566348999,
              39.94543539488319
            ],
            [
              116.34798955238281,
              39.94542163087797
            ],
            [
              116.34805399596713,
              39.945409495185665
            ],
            [
              116.3481189242135,
              39.945399000993845
            ],
            [
              116.34818426656584,
              39.94539015970632
            ],
            [
              116.34824995201814,
              39.94538298093078
            ],
            [
              116.34831590919173,
              39.945377472468195
            ],
            [
              116.34838206641263,
              39.94537364030455
            ],
            [
              116.34844835178956,
              39.945371488604195
            ],
            [
              116.34851469329196,
              39.945371019705334
            ],
            [
              116.34858101882836,
              39.945372234117585
            ],
            [
              116.34864725632453,
              39.94537513052128
            ],
            [
              116.34871333380198,
              39.945379705769035
            ],
            [
              116.34877917945603,
              39.94538595488909
            ],
            [
              116.34884472173385,
              39.9453938710907
            ],
            [
              116.34890988941227,
              39.945403445771596
            ],
            [
              116.34897461167502,
              39.94541466852722
            ],
            [
              116.34903881818983,
              39.945427527162124
            ],
            [
              116.3491024391847,
              39.94544200770318
            ],
            [
              116.34916540552382,
              39.945458094414725
            ],
            [
              116.34922764878263,
              39.945475769815765
            ],
            [
              116.34928910132214,
              39.94549501469882
            ],
            [
              116.34934969636251,
              39.945515808150915
            ],
            [
              116.34940936805549,
              39.94553812757625
            ],
            [
              116.34946805155607,
              39.94556194872075
            ],
            [
              116.34952568309286,
              39.94558724569842
            ],
            [
              116.34958220003746,
              39.94561399101948
            ],
            [
              116.34963754097241,
              39.94564215562022
            ],
            [
              116.34969164575803,
              39.945671708894565
            ],
            [
              116.34974445559766,
              39.94570261872739
            ],
            [
              116.3497959131017,
              39.94573485152932
            ],
            [
              116.3498459623498,
              39.945768372273314
            ],
            [
              116.34989454895175,
              39.94580314453265
            ],
            [
              116.34994162010655,
              39.94583913052055
            ],
            [
              116.34998712465975,
              39.945876291131235
            ],
            [
              116.35003101315908,
              39.945914585982386
            ],
            [
              116.35007323790826,
              39.945953973459055
            ],
            [
              116.35011375301872,
              39.94599441075885
            ],
            [
              116.35015251445948,
              39.94603585393845
            ],
            [
              116.35018948010512,
              39.946078257961396
            ],
            [
              116.35022460978142,
              39.94612157674694
            ],
            [
              116.35025786530917,
              39.94616576322023
            ],
            [
              116.35028921054558,
              39.94621076936334
            ],
            [
              116.3503186114236,
              39.94625654626753
            ],
            [
              116.35034603598888,
              39.94630304418635
            ],
            [
              116.35037145443465,
              39.946350212589756
            ]
          ]
        ]
      }
    }
  ]
}
